CCSDS_OMM_VERS = 2.0
CREATION_DATE  = 
ORIGINATOR     = 

OBJECT_NAME    = STARLINK-36390
OBJECT_ID      = 2026-035H
CENTER_NAME    = EARTH
REF_FRAME      = TEME
TIME_SYSTEM    = UTC
MEAN_ELEMENT_THEORY = SGP/SGP4

EPOCH          = 2026-03-10T22:00:03.000096
MEAN_MOTION    = 15.84590162
ECCENTRICITY   = .00010936
INCLINATION    = 97.2713
RA_OF_ASC_NODE = 2.3311
ARG_OF_PERICENTER = 88.3175
MEAN_ANOMALY   = 287.7167

EPHEMERIS_TYPE = 0
CLASSIFICATION_TYPE = U
NORAD_CAT_ID   = 67886
ELEMENT_SET_NO = 999
REV_AT_EPOCH   = 400
BSTAR          = -.60926781E-2
MEAN_MOTION_DOT = -.1235954E-1
MEAN_MOTION_DDOT = 0

CCSDS_OMM_VERS = 2.0
CREATION_DATE  = 
ORIGINATOR     = 

OBJECT_NAME    = STARLINK-36368
OBJECT_ID      = 2026-035J
CENTER_NAME    = EARTH
REF_FRAME      = TEME
TIME_SYSTEM    = UTC
MEAN_ELEMENT_THEORY = SGP/SGP4

EPOCH          = 2026-03-10T22:00:03.000096
MEAN_MOTION    = 15.84567505
ECCENTRICITY   = .00010585
INCLINATION    = 97.2711
RA_OF_ASC_NODE = 2.3328
ARG_OF_PERICENTER = 82.6189
MEAN_ANOMALY   = 298.0428

EPHEMERIS_TYPE = 0
CLASSIFICATION_TYPE = U
NORAD_CAT_ID   = 67887
ELEMENT_SET_NO = 999
REV_AT_EPOCH   = 395
BSTAR          = -.63978318E-2
MEAN_MOTION_DOT = -.1289373E-1
MEAN_MOTION_DDOT = 0

CCSDS_OMM_VERS = 2.0
CREATION_DATE  = 
ORIGINATOR     = 

OBJECT_NAME    = STARLINK-36801
OBJECT_ID      = 2026-035K
CENTER_NAME    = EARTH
REF_FRAME      = TEME
TIME_SYSTEM    = UTC
MEAN_ELEMENT_THEORY = SGP/SGP4

EPOCH          = 2026-03-10T22:00:03.000096
MEAN_MOTION    = 15.84533506
ECCENTRICITY   = .00010983
INCLINATION    = 97.2704
RA_OF_ASC_NODE = 2.3344
ARG_OF_PERICENTER = 93.9238
MEAN_ANOMALY   = 291.3134

EPHEMERIS_TYPE = 0
CLASSIFICATION_TYPE = U
NORAD_CAT_ID   = 67888
ELEMENT_SET_NO = 999
REV_AT_EPOCH   = 395
BSTAR          = -.65800694E-2
MEAN_MOTION_DOT = -.1319812E-1
MEAN_MOTION_DDOT = 0

CCSDS_OMM_VERS = 2.0
CREATION_DATE  = 
ORIGINATOR     = 

OBJECT_NAME    = STARLINK-36372
OBJECT_ID      = 2026-035L
CENTER_NAME    = EARTH
REF_FRAME      = TEME
TIME_SYSTEM    = UTC
MEAN_ELEMENT_THEORY = SGP/SGP4

EPOCH          = 2026-03-10T22:00:03.000096
MEAN_MOTION    = 15.84452071
ECCENTRICITY   = .00011474
INCLINATION    = 97.2694
RA_OF_ASC_NODE = 2.3374
ARG_OF_PERICENTER = 92.9428
MEAN_ANOMALY   = 301.3155

EPHEMERIS_TYPE = 0
CLASSIFICATION_TYPE = U
NORAD_CAT_ID   = 67889
ELEMENT_SET_NO = 999
REV_AT_EPOCH   = 395
BSTAR          = -.66729787E-2
MEAN_MOTION_DOT = -.1331625E-1
MEAN_MOTION_DDOT = 0

CCSDS_OMM_VERS = 2.0
CREATION_DATE  = 
ORIGINATOR     = 

OBJECT_NAME    = STARLINK-36363
OBJECT_ID      = 2026-035M
CENTER_NAME    = EARTH
REF_FRAME      = TEME
TIME_SYSTEM    = UTC
MEAN_ELEMENT_THEORY = SGP/SGP4

EPOCH          = 2026-03-10T22:00:03.000096
MEAN_MOTION    = 15.84441585
ECCENTRICITY   = .0001272
INCLINATION    = 97.2701
RA_OF_ASC_NODE = 2.3365
ARG_OF_PERICENTER = 87.0385
MEAN_ANOMALY   = 302.9714

EPHEMERIS_TYPE = 0
CLASSIFICATION_TYPE = U
NORAD_CAT_ID   = 67890
ELEMENT_SET_NO = 999
REV_AT_EPOCH   = 395
BSTAR          = -.66407057E-2
MEAN_MOTION_DOT = -.1325462E-1
MEAN_MOTION_DDOT = 0

CCSDS_OMM_VERS = 2.0
CREATION_DATE  = 
ORIGINATOR     = 

OBJECT_NAME    = STARLINK-36816
OBJECT_ID      = 2026-035N
CENTER_NAME    = EARTH
REF_FRAME      = TEME
TIME_SYSTEM    = UTC
MEAN_ELEMENT_THEORY = SGP/SGP4

EPOCH          = 2026-03-10T22:00:03.000096
MEAN_MOTION    = 15.83378571
ECCENTRICITY   = .00014132
INCLINATION    = 97.2670
RA_OF_ASC_NODE = 2.3603
ARG_OF_PERICENTER = 79.4833
MEAN_ANOMALY   = 15.1912

EPHEMERIS_TYPE = 0
CLASSIFICATION_TYPE = U
NORAD_CAT_ID   = 67891
ELEMENT_SET_NO = 999
REV_AT_EPOCH   = 384
BSTAR          = -.82511944E-2
MEAN_MOTION_DOT = -.1564803E-1
MEAN_MOTION_DDOT = 0

CCSDS_OMM_VERS = 2.0
CREATION_DATE  = 
ORIGINATOR     = 

OBJECT_NAME    = STARLINK-36813
OBJECT_ID      = 2026-035P
CENTER_NAME    = EARTH
REF_FRAME      = TEME
TIME_SYSTEM    = UTC
MEAN_ELEMENT_THEORY = SGP/SGP4

EPOCH          = 2026-03-10T22:00:03.000096
MEAN_MOTION    = 15.83807288
ECCENTRICITY   = .00011694
INCLINATION    = 97.2664
RA_OF_ASC_NODE = 2.3479
ARG_OF_PERICENTER = 84.7921
MEAN_ANOMALY   = 342.4302

EPHEMERIS_TYPE = 0
CLASSIFICATION_TYPE = U
NORAD_CAT_ID   = 67892
ELEMENT_SET_NO = 999
REV_AT_EPOCH   = 395
BSTAR          = -.727282E-2
MEAN_MOTION_DOT = -.1397508E-1
MEAN_MOTION_DDOT = 0

CCSDS_OMM_VERS = 2.0
CREATION_DATE  = 
ORIGINATOR     = 

OBJECT_NAME    = STARLINK-36803
OBJECT_ID      = 2026-035Q
CENTER_NAME    = EARTH
REF_FRAME      = TEME
TIME_SYSTEM    = UTC
MEAN_ELEMENT_THEORY = SGP/SGP4

EPOCH          = 2026-03-10T22:00:03.000096
MEAN_MOTION    = 15.84339764
ECCENTRICITY   = .00011339
INCLINATION    = 97.2693
RA_OF_ASC_NODE = 2.3393
ARG_OF_PERICENTER = 89.0061
MEAN_ANOMALY   = 310.1101

EPHEMERIS_TYPE = 0
CLASSIFICATION_TYPE = U
NORAD_CAT_ID   = 67893
ELEMENT_SET_NO = 999
REV_AT_EPOCH   = 395
BSTAR          = -.67616509E-2
MEAN_MOTION_DOT = -.1340779E-1
MEAN_MOTION_DDOT = 0

CCSDS_OMM_VERS = 2.0
CREATION_DATE  = 
ORIGINATOR     = 

OBJECT_NAME    = STARLINK-36846
OBJECT_ID      = 2026-035R
CENTER_NAME    = EARTH
REF_FRAME      = TEME
TIME_SYSTEM    = UTC
MEAN_ELEMENT_THEORY = SGP/SGP4

EPOCH          = 2026-03-10T22:00:03.000096
MEAN_MOTION    = 15.84096888
ECCENTRICITY   = .00012045
INCLINATION    = 97.2686
RA_OF_ASC_NODE = 2.3429
ARG_OF_PERICENTER = 92.7047
MEAN_ANOMALY   = 316.1104

EPHEMERIS_TYPE = 0
CLASSIFICATION_TYPE = U
NORAD_CAT_ID   = 67894
ELEMENT_SET_NO = 999
REV_AT_EPOCH   = 395
BSTAR          = -.69336943E-2
MEAN_MOTION_DOT = -.1356774E-1
MEAN_MOTION_DDOT = 0

CCSDS_OMM_VERS = 2.0
CREATION_DATE  = 
ORIGINATOR     = 

OBJECT_NAME    = STARLINK-36866
OBJECT_ID      = 2026-035S
CENTER_NAME    = EARTH
REF_FRAME      = TEME
TIME_SYSTEM    = UTC
MEAN_ELEMENT_THEORY = SGP/SGP4

EPOCH          = 2026-03-10T22:00:03.000096
MEAN_MOTION    = 15.84026599
ECCENTRICITY   = .00010956
INCLINATION    = 97.2685
RA_OF_ASC_NODE = 2.3447
ARG_OF_PERICENTER = 74.4116
MEAN_ANOMALY   = 339.0074

EPHEMERIS_TYPE = 0
CLASSIFICATION_TYPE = U
NORAD_CAT_ID   = 67895
ELEMENT_SET_NO = 999
REV_AT_EPOCH   = 395
BSTAR          = -.70068262E-2
MEAN_MOTION_DOT = -.1365187E-1
MEAN_MOTION_DDOT = 0

CCSDS_OMM_VERS = 2.0
CREATION_DATE  = 
ORIGINATOR     = 

OBJECT_NAME    = STARLINK-36877
OBJECT_ID      = 2026-035T
CENTER_NAME    = EARTH
REF_FRAME      = TEME
TIME_SYSTEM    = UTC
MEAN_ELEMENT_THEORY = SGP/SGP4

EPOCH          = 2026-03-10T22:00:03.000096
MEAN_MOTION    = 15.84207924
ECCENTRICITY   = .00011312
INCLINATION    = 97.2687
RA_OF_ASC_NODE = 2.3409
ARG_OF_PERICENTER = 73.9239
MEAN_ANOMALY   = 330.1237

EPHEMERIS_TYPE = 0
CLASSIFICATION_TYPE = U
NORAD_CAT_ID   = 67896
ELEMENT_SET_NO = 999
REV_AT_EPOCH   = 395
BSTAR          = -.69007108E-2
MEAN_MOTION_DOT = -.1357373E-1
MEAN_MOTION_DDOT = 0

CCSDS_OMM_VERS = 2.0
CREATION_DATE  = 
ORIGINATOR     = 

OBJECT_NAME    = STARLINK-36870
OBJECT_ID      = 2026-035U
CENTER_NAME    = EARTH
REF_FRAME      = TEME
TIME_SYSTEM    = UTC
MEAN_ELEMENT_THEORY = SGP/SGP4

EPOCH          = 2026-03-10T22:00:03.000096
MEAN_MOTION    = 15.83915037
ECCENTRICITY   = .00011959
INCLINATION    = 97.2677
RA_OF_ASC_NODE = 2.3459
ARG_OF_PERICENTER = 94.9536
MEAN_ANOMALY   = 323.2424

EPHEMERIS_TYPE = 0
CLASSIFICATION_TYPE = U
NORAD_CAT_ID   = 67897
ELEMENT_SET_NO = 999
REV_AT_EPOCH   = 395
BSTAR          = -.71601573E-2
MEAN_MOTION_DOT = -.1384843E-1
MEAN_MOTION_DDOT = 0

