STARLINK-36390          
1 67886U 26035H   26069.91670139 -.01235954  00000+0 -60927-2 0  9996
2 67886  97.2713   2.3311 0001093  88.3175 287.7167 15.84590162  4004
STARLINK-36368          
1 67887U 26035J   26069.91670139 -.01289373  00000+0 -63978-2 0  9990
2 67887  97.2711   2.3328 0001058  82.6189 298.0428 15.84567505  3957
STARLINK-36801          
1 67888U 26035K   26069.91670139 -.01319812  00000+0 -65801-2 0  9990
2 67888  97.2704   2.3344 0001098  93.9238 291.3134 15.84533506  3956
STARLINK-36372          
1 67889U 26035L   26069.91670139 -.01331625  00000+0 -66730-2 0  9999
2 67889  97.2694   2.3374 0001147  92.9428 301.3155 15.84452071  3955
STARLINK-36363          
1 67890U 26035M   26069.91670139 -.01325462  00000+0 -66407-2 0  9994
2 67890  97.2701   2.3365 0001272  87.0385 302.9714 15.84441585  3958
STARLINK-36816          
1 67891U 26035N   26069.91670139 -.01564803  00000+0 -82512-2 0  9994
2 67891  97.2670   2.3603 0001413  79.4833  15.1912 15.83378571  3843
STARLINK-36813          
1 67892U 26035P   26069.91670139 -.01397508  00000+0 -72728-2 0  9999
2 67892  97.2664   2.3479 0001169  84.7921 342.4302 15.83807288  3956
STARLINK-36803          
1 67893U 26035Q   26069.91670139 -.01340779  00000+0 -67617-2 0  9999
2 67893  97.2693   2.3393 0001133  89.0061 310.1101 15.84339764  3957
STARLINK-36846          
1 67894U 26035R   26069.91670139 -.01356774  00000+0 -69337-2 0  9993
2 67894  97.2686   2.3429 0001204  92.7047 316.1104 15.84096888  3950
STARLINK-36866          
1 67895U 26035S   26069.91670139 -.01365187  00000+0 -70068-2 0  9995
2 67895  97.2685   2.3447 0001095  74.4116 339.0074 15.84026599  3954
STARLINK-36877          
1 67896U 26035T   26069.91670139 -.01357373  00000+0 -69007-2 0  9995
2 67896  97.2687   2.3409 0001131  73.9239 330.1237 15.84207924  3952
STARLINK-36870          
1 67897U 26035U   26069.91670139 -.01384843  00000+0 -71602-2 0  9992
2 67897  97.2677   2.3459 0001195  94.9536 323.2424 15.83915037  3951
